NORAD_CAT_ID,OBJECT_NAME,OBJECT_TYPE,EPOCH,MEAN_MOTION,ECCENTRICITY,INCLINATION,RA_OF_ASC_NODE,ARG_OF_PERICENTER,MEAN_ANOMALY,BSTAR,MEAN_MOTION_DOT,MEAN_MOTION_DDOT,TLE_LINE0,TLE_LINE1,TLE_LINE2,SEMIMAJOR_AXIS,PERIOD,APOGEE,PERIGEE,DECAYED
54771.0,STARLINK-5451,PAYLOAD,2024-05-18 16:24:45,15.08857369,0.0001454,53.2151,121.799,117.4791,242.6349,0.00039996,6.086e-05,0.0,0 STARLINK-5451,1 54771U 22175P   24139.68385940  .00006086  00000-0  39996-3 0  9992,2 54771  53.2151 121.7990 0001454 117.4791 242.6349 15.08857369 80354,6917.827,95.436,540.698,538.686,0.0
54771.0,STARLINK-5451,PAYLOAD,2024-05-19 05:07:51,15.08833389,0.000136,53.2147,119.4208,104.7431,255.3712,-6.53e-05,-1.327e-05,0.0,0 STARLINK-5451,1 54771U 22175P   24140.21378883 -.00001327  00000-0 -65300-4 0  9995,2 54771  53.2147 119.4208 0001360 104.7431 255.3712 15.08833389 78270,6917.901,95.438,540.706,538.825,0.0
54771.0,STARLINK-5451,PAYLOAD,2024-05-20 04:58:38,15.08846445,0.0001354,53.2154,114.9594,100.8421,259.2724,0.00070182,0.00010901,0.0,0 STARLINK-5451,1 54771U 22175P   24141.20738935  .00010901  00000-0  70182-3 0  9992,2 54771  53.2154 114.9594 0001354 100.8421 259.2724 15.08846445 78425,6917.861,95.437,540.662,538.789,0.0
54771.0,STARLINK-5451,PAYLOAD,2024-05-21 04:49:25,15.0883526,0.0001247,53.2154,110.4981,99.8579,260.2554,3.2336e-05,2.27e-06,0.0,0 STARLINK-5451,1 54771U 22175P   24142.20099186  .00000227  00000-0  32336-4 0  9991,2 54771  53.2154 110.4981 0001247  99.8579 260.2554 15.08835260 78570,6917.895,95.438,540.623,538.897,0.0
54771.0,STARLINK-5451,PAYLOAD,2024-05-21 22:18:40,15.08836783,0.0001243,53.2157,107.2255,104.2861,255.8269,-3.7533e-07,-2.94e-06,0.0,0 STARLINK-5451,1 54771U 22175P   24142.92963270 -.00000294  00000-0 -37533-6 0  9996,2 54771  53.2157 107.2255 0001243 104.2861 255.8269 15.08836783 80849,6917.89,95.438,540.615,538.895,0.0
54771.0,STARLINK-5451,PAYLOAD,2024-05-22 03:04:49,15.08836196,0.0001246,53.2158,106.3336,105.2491,254.8639,-1.9449e-05,-5.97e-06,0.0,0 STARLINK-5451,1 54771U 22175P   24143.12835358 -.00000597  00000-0 -19449-4 0  9994,2 54771  53.2158 106.3336 0001246 105.2491 254.8639 15.08836196 80874,6917.892,95.438,540.619,538.895,0.0
54771.0,STARLINK-5451,PAYLOAD,2024-05-22 22:09:27,15.08833771,0.0001188,53.2167,102.7654,104.069,256.0434,0.00014371,2e-05,0.0,0 STARLINK-5451,1 54771U 22175P   24143.92323723  .00002000  00000-0  14371-3 0  9997,2 54771  53.2167 102.7654 0001188 104.0690 256.0434 15.08833771 80996,6917.899,95.438,540.586,538.943,0.0
54771.0,STARLINK-5451,PAYLOAD,2024-05-23 04:31:00,15.08832861,0.0001134,53.2165,101.5767,93.2082,266.9039,0.00012827,1.754e-05,0.0,0 STARLINK-5451,1 54771U 22175P   24144.18820044  .00001754  00000-0  12827-3 0  9993,2 54771  53.2165 101.5767 0001134  93.2082 266.9039 15.08832861 78875,6917.902,95.438,540.552,538.983,0.0
54771.0,STARLINK-5451,PAYLOAD,2024-05-24 02:46:24,15.08843172,0.0001158,53.2164,97.4156,87.9301,272.1824,0.00017447,2.49e-05,0.0,0 STARLINK-5451,1 54771U 22175P   24145.11555558  .00002490  00000-0  17447-3 0  9993,2 54771  53.2164  97.4156 0001158  87.9301 272.1824 15.08843172 79014,6917.871,95.437,540.537,538.935,0.0
54771.0,STARLINK-5451,PAYLOAD,2024-05-24 05:57:10,15.08847029,0.0001392,53.2167,96.8191,110.8336,249.2805,0.0002,2.897e-05,0.0,0 STARLINK-5451,1 54771U 22175P   24145.24803243  .00002897  00000-0  20000-3 0  9994,2 54771  53.2167  96.8191 0001392 110.8336 249.2805 15.08847029 81194,6917.859,95.437,540.687,538.761,0.0
54771.0,STARLINK-5451,PAYLOAD,2024-05-25 04:12:34,15.08836858,0.0001387,53.2172,92.6522,80.5288,279.5861,2.7446e-05,1.49e-06,0.0,0 STARLINK-5451,1 54771U 22175P   24146.17539840  .00000149  00000-0  27446-4 0  9996,2 54771  53.2172  92.6522 0001387  80.5288 279.5861 15.08836858 79176,6917.89,95.438,540.715,538.795,0.0
54771.0,STARLINK-5451,PAYLOAD,2024-05-25 13:44:53,15.08843436,0.0001103,53.2175,90.8752,87.9451,272.1668,8.2182e-05,1.02e-05,0.0,0 STARLINK-5451,1 54771U 22175P   24146.57283574  .00001020  00000-0  82182-4 0  9997,2 54771  53.2175  90.8752 0001103  87.9451 272.1668 15.08843436 81394,6917.87,95.437,540.498,538.972,0.0
54771.0,STARLINK-5451,PAYLOAD,2024-05-26 02:27:58,15.08844134,0.0001125,53.2176,88.4977,87.4534,272.6587,-9.2691e-05,-1.763e-05,0.0,0 STARLINK-5451,1 54771U 22175P   24147.10276104 -.00001763  00000-0 -92691-4 0  9990,2 54771  53.2176  88.4977 0001125  87.4534 272.6587 15.08844134 81478,6917.868,95.437,540.511,538.954,0.0
54771.0,STARLINK-5451,PAYLOAD,2024-05-26 19:57:12,15.08840096,0.0001316,53.2176,85.2267,85.6001,274.5141,0.00011281,1.508e-05,0.0,0 STARLINK-5451,1 54771U 22175P   24147.83139686  .00001508  00000-0  11281-3 0  9993,2 54771  53.2176  85.2267 0001316  85.6001 274.5141 15.08840096 79428,6917.88,95.438,540.655,538.835,0.0
54771.0,STARLINK-5451,PAYLOAD,2024-05-26 23:07:59,15.08832552,0.0001311,53.2177,84.6312,88.1463,271.9679,0.000177,2.53e-05,0.0,0 STARLINK-5451,1 54771U 22175P   24147.96387906  .00002530  00000-0  17700-3 0  9995,2 54771  53.2177  84.6312 0001311  88.1463 271.9679 15.08832552 81606,6917.903,95.438,540.675,538.861,0.0
54771.0,STARLINK-5451,PAYLOAD,2024-05-27 05:29:31,15.08839755,0.0001367,53.2184,83.4396,87.0417,273.0732,9.538e-05,1.23e-05,0.0,0 STARLINK-5451,1 54771U 22175P   24148.22883802  .00001230  00000-0  95380-4 0  9998,2 54771  53.2184  83.4396 0001367  87.0417 273.0732 15.08839755 81640,6917.881,95.438,540.692,538.8,0.0
54771.0,STARLINK-5451,PAYLOAD,2024-05-27 22:58:46,15.08836649,0.000134,53.2177,80.1682,104.1709,255.9432,2.7289e-05,1.46e-06,0.0,0 STARLINK-5451,1 54771U 22175P   24148.95748191  .00000146  00000-0  27289-4 0  9997,2 54771  53.2177  80.1682 0001340 104.1709 255.9432 15.08836649 81757,6917.891,95.438,540.683,538.829,0.0
54771.0,STARLINK-5451,PAYLOAD,2024-05-28 02:09:32,15.08836947,0.0001303,53.2175,79.5735,99.3471,260.7668,2.6518e-05,1.34e-06,0.0,0 STARLINK-5451,1 54771U 22175P   24149.08996191  .00000134  00000-0  26518-4 0  9998,2 54771  53.2175  79.5735 0001303  99.3471 260.7668 15.08836947 79614,6917.89,95.438,540.656,538.853,0.0
54771.0,STARLINK-5451,PAYLOAD,2024-05-28 05:20:18,15.08837301,0.0001291,53.2175,78.979,97.5154,262.5985,2.7811e-05,1.55e-06,0.0,0 STARLINK-5451,1 54771U 22175P   24149.22244196  .00000155  00000-0  27811-4 0  9995,2 54771  53.2175  78.9790 0001291  97.5154 262.5985 15.08837301 81791,6917.889,95.438,540.647,538.861,0.0
54771.0,STARLINK-5451,PAYLOAD,2024-05-29 02:00:19,15.08838979,0.0001298,53.2177,75.1133,100.1864,259.9275,4.0033e-05,3.49e-06,0.0,0 STARLINK-5451,1 54771U 22175P   24150.08356072  .00000349  00000-0  40033-4 0  9994,2 54771  53.2177  75.1133 0001298 100.1864 259.9275 15.08838979 81928,6917.884,95.438,540.646,538.851,0.0
54771.0,STARLINK-5451,PAYLOAD,2024-05-29 17:54:11,15.08837411,0.0001281,53.2177,72.1411,100.82,259.2937,6.3557e-05,7.24e-06,0.0,0 STARLINK-5451,1 54771U 22175P   24150.74596212  .00000724  00000-0  63557-4 0  9992,2 54771  53.2177  72.1411 0001281 100.8200 259.2937 15.08837411 79865,6917.888,95.438,540.639,538.867,0.0
54771.0,STARLINK-5451,PAYLOAD,2024-05-29 22:40:20,15.08837914,0.0001252,53.2176,71.2486,99.408,260.7054,5.4786e-05,5.84e-06,0.0,0 STARLINK-5451,1 54771U 22175P   24150.94468294  .00000584  00000-0  54786-4 0  9990,2 54771  53.2176  71.2486 0001252  99.4080 260.7054 15.08837914 82053,6917.887,95.438,540.618,538.886,0.0
54771.0,STARLINK-5451,PAYLOAD,2024-05-30 05:01:53,15.08838718,0.0001267,53.2179,70.059,100.1404,259.9731,6.3989e-05,7.31e-06,0.0,0 STARLINK-5451,1 54771U 22175P   24151.20964298  .00000731  00000-0  63989-4 0  9994,2 54771  53.2179  70.0590 0001267 100.1404 259.9731 15.08838718 82094,6917.884,95.438,540.626,538.873,0.0
54771.0,STARLINK-5451,PAYLOAD,2024-05-30 22:31:07,15.08839347,0.0001362,53.2183,66.7879,109.0921,251.0219,5.0334e-05,5.13e-06,0.0,0 STARLINK-5451,1 54771U 22175P   24151.93828349  .00000513  00000-0  50334-4 0  9998,2 54771  53.2183  66.7879 0001362 109.0921 251.0219 15.08839347 82205,6917.882,95.438,540.69,538.805,0.0
54771.0,STARLINK-5451,PAYLOAD,2024-05-31 04:52:40,15.08840658,0.0001243,53.218,65.5984,91.483,268.6304,5.3174e-05,5.59e-06,0.0,0 STARLINK-5451,1 54771U 22175P   24152.20324338  .00000559  00000-0  53174-4 0  9993,2 54771  53.2180  65.5984 0001243  91.4830 268.6304 15.08840658 80087,6917.878,95.438,540.603,538.883,0.0
54771.0,STARLINK-5451,PAYLOAD,2024-05-31 22:21:55,15.08828189,0.0001329,53.2184,62.3298,88.6272,271.4872,2.4439e-05,1.01e-06,0.0,0 STARLINK-5451,1 54771U 22175P   24152.93189187  .00000101  00000-0  24439-4 0  9999,2 54771  53.2184  62.3298 0001329  88.6272 271.4872 15.08828189 82356,6917.916,95.438,540.701,538.862,0.0
54771.0,STARLINK-5451,PAYLOAD,2024-06-01 03:08:04,15.08837478,0.0001463,53.2184,61.436,79.2651,280.8506,1.7727e-05,-6e-08,0.0,0 STARLINK-5451,1 54771U 22175P   24153.13060768 -.00000006  00000-0  17727-4 0  9992,2 54771  53.2184  61.4360 0001463  79.2651 280.8506 15.08837478 80225,6917.888,95.438,540.765,538.741,0.0
54771.0,STARLINK-5451,PAYLOAD,2024-06-01 11:04:59,15.0884991,0.0001539,53.2189,59.95,77.5654,282.5511,6.7164e-05,7.81e-06,0.0,0 STARLINK-5451,1 54771U 22175P   24153.46179742  .00000781  00000-0  67164-4 0  9990,2 54771  53.2189  59.9500 0001539  77.5654 282.5511 15.08849910 80270,6917.85,95.437,540.78,538.65,0.0
54771.0,STARLINK-5451,PAYLOAD,2024-06-02 02:58:51,15.08843901,0.0001272,53.2176,56.9766,92.8298,267.284,4.3123e-05,3.99e-06,0.0,0 STARLINK-5451,1 54771U 22175P   24154.12420381  .00000399  00000-0  43123-4 0  9996,2 54771  53.2176  56.9766 0001272  92.8298 267.2840 15.08843901 80375,6917.868,95.437,540.613,538.854,0.0
54771.0,STARLINK-5451,PAYLOAD,2024-06-02 10:55:46,15.08850306,0.0001417,53.218,55.491,79.2083,280.9069,6.2541e-05,7.08e-06,0.0,0 STARLINK-5451,1 54771U 22175P   24154.45539816  .00000708  00000-0  62541-4 0  9995,2 54771  53.2180  55.4910 0001417  79.2083 280.9069 15.08850306 82584,6917.849,95.437,540.694,538.734,0.0
